{
    "links": {
        "self": "http://www.neowsapp.com/rest/v1/neo/3797761?api_key=iIulBulltgU6a56xZRHN4H3l9WmuAYTsLGpBGhQ2"
    },
    "id": "3797761",
    "neo_reference_id": "3797761",
    "name": "(2017 YM14)",
    "designation": "2017 YM14",
    "nasa_jpl_url": "http://ssd.jpl.nasa.gov/sbdb.cgi?sstr=3797761",
    "absolute_magnitude_h": 27.739,
    "estimated_diameter": {
        "kilometers": {
            "estimated_diameter_min": 0.0075293065,
            "estimated_diameter_max": 0.0168360412
        },
        "meters": {
            "estimated_diameter_min": 7.5293065003,
            "estimated_diameter_max": 16.8360411582
        },
        "miles": {
            "estimated_diameter_min": 0.0046784927,
            "estimated_diameter_max": 0.0104614277
        },
        "feet": {
            "estimated_diameter_min": 24.7024499386,
            "estimated_diameter_max": 55.2363572735
        }
    },
    "is_potentially_hazardous_asteroid": false,
    "close_approach_data": [
        {
            "close_approach_date": "2017-12-25",
            "close_approach_date_full": "2017-Dec-25 14:15",
            "epoch_date_close_approach": 1514211300000,
            "relative_velocity": {
                "kilometers_per_second": "17.8380644848",
                "kilometers_per_hour": "64217.032145338",
                "miles_per_hour": "39901.9664460851"
            },
            "miss_distance": {
                "astronomical": "0.0039545408",
                "lunar": "1.5383163712",
                "kilometers": "591590.880508096",
                "miles": "367597.5274238848"
            },
            "orbiting_body": "Moon"
        },
        {
            "close_approach_date": "2017-12-25",
            "close_approach_date_full": "2017-Dec-25 16:01",
            "epoch_date_close_approach": 1514217660000,
            "relative_velocity": {
                "kilometers_per_second": "18.8110404949",
                "kilometers_per_hour": "67719.745781536",
                "miles_per_hour": "42078.4164829772"
            },
            "miss_distance": {
                "astronomical": "0.0039041216",
                "lunar": "1.5187033024",
                "kilometers": "584048.275580992",
                "miles": "362910.7700500096"
            },
            "orbiting_body": "Earth"
        }
    ],
    "orbital_data": {
        "orbit_id": "1",
        "orbit_determination_date": "2018-01-20 06:52:46",
        "first_observation_date": "2017-12-28",
        "last_observation_date": "2017-12-29",
        "data_arc_in_days": 1,
        "observations_used": 15,
        "orbit_uncertainty": "8",
        "minimum_orbit_intersection": ".00364047",
        "jupiter_tisserand_invariant": "3.147",
        "epoch_osculation": "2458116.5",
        "eccentricity": ".7060881887513419",
        "semi_major_axis": "2.374888502010097",
        "inclination": "2.344831313376268",
        "ascending_node_longitude": "278.8262857430054",
        "orbital_period": "1336.790234114416",
        "perihelion_distance": ".6980077811394001",
        "perihelion_argument": "102.2227431792451",
        "aphelion_distance": "4.051769222880795",
        "perihelion_time": "2458070.985528768566",
        "mean_anomaly": "12.25712847473856",
        "mean_motion": ".2693017878294789",
        "equinox": "J2000",
        "orbit_class": {
            "orbit_class_type": "APO",
            "orbit_class_description": "Near-Earth asteroid orbits which cross the Earth’s orbit similar to that of 1862 Apollo",
            "orbit_class_range": "a (semi-major axis) > 1.0 AU; q (perihelion) < 1.017 AU"
        }
    },
    "is_sentry_object": false
}